NORAD_CAT_ID,OBJECT_NAME,OBJECT_TYPE,EPOCH,MEAN_MOTION,ECCENTRICITY,INCLINATION,RA_OF_ASC_NODE,ARG_OF_PERICENTER,MEAN_ANOMALY,BSTAR,MEAN_MOTION_DOT,MEAN_MOTION_DDOT,TLE_LINE0,TLE_LINE1,TLE_LINE2,SEMIMAJOR_AXIS,PERIOD,APOGEE,PERIGEE,DECAYED
49424.0,STARLINK-3135,PAYLOAD,2022-02-18 14:00:01,15.0886473,0.0002105,53.2151,33.5693,40.4817,111.3278,-0.0036589,-0.00058091,0.0,0 STARLINK-3135,1 49424U 21104S   22049.58334491 -.00058091  00000-0 -36589-2 0  9993,2 49424  53.2151  33.5693 0002105  40.4817 111.3278 15.08864730  3607,6917.805,95.436,541.126,538.214,0.0
49424.0,STARLINK-3135,PAYLOAD,2022-02-18 22:00:00,15.08813321,0.0001962,53.2156,32.0716,44.5094,118.9019,0.0013942,0.00021954,0.0,0 STARLINK-3135,1 49424U 21104S   22049.91667824  .00021954  00000-0  13942-2 0  9993,2 49424  53.2156  32.0716 0001962  44.5094 118.9019 15.08813321 16312,6917.962,95.439,541.184,538.47,0.0
49424.0,STARLINK-3135,PAYLOAD,2022-02-19 14:00:01,15.08846602,0.000212,53.2158,29.08,40.9774,145.5801,-0.0017555999999999,-0.00028126,0.0,0 STARLINK-3135,1 49424U 21104S   22050.58334491 -.00028126  00000-0 -17556-2 0  9994,2 49424  53.2158  29.0800 0002120  40.9774 145.5801 15.08846602  3595,6917.86,95.437,541.192,538.259,0.0
49424.0,STARLINK-3135,PAYLOAD,2022-02-19 22:00:00,15.08834407,0.0002033,53.2163,27.5826,46.2958,151.8565,0.0016986,0.00026845,0.0,0 STARLINK-3135,1 49424U 21104S   22050.91667824  .00026845  00000-0  16986-2 0  9990,2 49424  53.2163  27.5826 0002033  46.2958 151.8565 15.08834407 16465,6917.897,95.438,541.169,538.356,0.0
49424.0,STARLINK-3135,PAYLOAD,2022-02-20 14:00:01,15.08882976,0.0002111,53.2162,24.5907,42.0256,179.3284,-0.0045522,-0.00072099,0.0,0 STARLINK-3135,1 49424U 21104S   22051.58334491 -.00072099  00000-0 -45522-2 0  9997,2 49424  53.2162  24.5907 0002111  42.0256 179.3284 15.08882976 16561,6917.749,95.435,541.0740000000002,538.154,0.0
49424.0,STARLINK-3135,PAYLOAD,2022-02-20 22:00:00,15.08833018,0.0001985,53.2166,23.0936,46.0029,186.9649,0.0014249,0.00022458,0.0,0 STARLINK-3135,1 49424U 21104S   22051.91667824  .00022458  00000-0  14249-2 0  9997,2 49424  53.2166  23.0936 0001985  46.0029 186.9649 15.08833018  3569,6917.901999999999,95.438,541.14,538.394,0.0
49424.0,STARLINK-3135,PAYLOAD,2022-02-21 06:00:00,15.08833092,0.0002193,53.2164,21.599,41.3711,203.1939,0.00089158,0.00013927,0.0,0 STARLINK-3135,1 49424U 21104S   22052.25001157  .00013927  00000-0  89158-3 0  9999,2 49424  53.2164  21.5990 0002193  41.3711 203.1939 15.08833092 16669,6917.901999999999,95.438,541.284,538.249,0.0
49424.0,STARLINK-3135,PAYLOAD,2022-02-21 22:00:00,15.08824467,0.0001925,53.2164,18.6047,45.5981,222.1472,0.00094345,0.00014753,0.0,0 STARLINK-3135,1 49424U 21104S   22052.91667824  .00014753  00000-0  94345-3 0  9993,2 49424  53.2164  18.6047 0001925  45.5981 222.1472 15.08824467 16766,6917.928000000001,95.439,541.125,538.461,0.0
49424.0,STARLINK-3135,PAYLOAD,2022-02-22 14:00:01,15.08848166,0.0002038,53.2158,15.6126,43.0373,247.8713,-0.0016474,-0.00026417,0.0,0 STARLINK-3135,1 49424U 21104S   22053.58334491 -.00026417  00000-0 -16474-2 0  9996,2 49424  53.2158  15.6126 0002038  43.0373 247.8713 15.08848166  3588,6917.855,95.437,541.13,538.311,0.0
49424.0,STARLINK-3135,PAYLOAD,2022-02-22 22:00:00,15.08848288,0.0001981,53.2159,14.1158,48.2974,254.2056,0.00064629,0.00010015,0.0,0 STARLINK-3135,1 49424U 21104S   22053.91667824  .00010015  00000-0  64629-3 0  9993,2 49424  53.2159  14.1158 0001981  48.2974 254.2056 15.08848288  3585,6917.855,95.437,541.09,538.35,0.0
49424.0,STARLINK-3135,PAYLOAD,2022-02-23 06:00:00,15.08841966,0.0002177,53.2157,12.6211,43.5178,270.6003,0.0012134,0.00019077,0.0,0 STARLINK-3135,1 49424U 21104S   22054.25001157  .00019077  00000-0  12134-2 0  9992,2 49424  53.2157  12.6211 0002177  43.5178 270.6003 15.08841966 16964,6917.874,95.437,541.245,538.2330000000002,0.0
49424.0,STARLINK-3135,PAYLOAD,2022-02-23 14:00:01,15.08858641,0.0002026,53.2154,11.1234,43.9256,281.7988,-0.0030111,-0.00047917,0.0,0 STARLINK-3135,1 49424U 21104S   22054.58334491 -.00047917  00000-0 -30111-2 0  9999,2 49424  53.2154  11.1234 0002026  43.9256 281.7988 15.08858641  3592,6917.823,95.436,541.09,538.2869999999998,0.0
49424.0,STARLINK-3135,PAYLOAD,2022-02-23 20:00:01,15.08830506,0.0001926,53.2153,10.0003,47.0094,197.4127,0.00084023,0.00013106,0.0,0 STARLINK-3135,1 49424U 21104S   22054.83334491  .00013106  00000-0  84023-3 0  9990,2 49424  53.2153  10.0003 0001926  47.0094 197.4127 15.08830506 17050,6917.909000000002,95.438,541.107,538.442,0.0
49424.0,STARLINK-3135,PAYLOAD,2022-02-23 22:00:00,15.08854473,0.0001936,53.2155,9.6266,46.684,290.6277,-0.0022292,-0.00035606,0.0,0 STARLINK-3135,1 49424U 21104S   22054.91667824 -.00035606  00000-0 -22292-2 0  9998,2 49424  53.2155   9.6266 0001936  46.6840 290.6277 15.08854473  3597,6917.8359999999975,95.437,541.04,538.362,0.0
49424.0,STARLINK-3135,PAYLOAD,2022-02-24 14:00:01,15.088284699999996,0.0002017,53.2152,6.6339,42.8297,317.6473,-0.0007511,-0.00012219,0.0,0 STARLINK-3135,1 49424U 21104S   22055.58334491 -.00012219  00000-0 -75110-3 0  9996,2 49424  53.2152   6.6339 0002017  42.8297 317.6473 15.08828470  3593,6917.916,95.438,541.1759999999998,538.385,0.0
49424.0,STARLINK-3135,PAYLOAD,2022-02-24 22:00:00,15.088216,0.0001985,53.2165,5.1368,44.2049,327.8402,0.00029048,4.336e-05,0.0,0 STARLINK-3135,1 49424U 21104S   22055.91667824  .00004336  00000-0  29048-3 0  9990,2 49424  53.2165   5.1368 0001985  44.2049 327.8402 15.08821600  3589,6917.937,95.439,541.175,538.428,0.0
49424.0,STARLINK-3135,PAYLOAD,2022-02-25 06:00:00,15.08815854,0.0002236,53.2154,3.6425,42.4144,341.2313,0.0025457,0.00040433,0.0,0 STARLINK-3135,1 49424U 21104S   22056.25001157  .00040433  00000-0  25457-2 0  9996,2 49424  53.2154   3.6425 0002236  42.4144 341.2313 15.08815854 17276,6917.954000000002,95.439,541.366,538.2719999999998,0.0
49424.0,STARLINK-3135,PAYLOAD,2022-02-25 14:00:01,15.088455499999998,0.0002124,53.2154,2.1443,44.6344,350.6,-0.00023788,-4.073e-05,0.0,0 STARLINK-3135,1 49424U 21104S   22056.58334491 -.00004073  00000-0 -23788-3 0  9990,2 49424  53.2154   2.1443 0002124  44.6344 350.6000 15.08845550  3573,6917.863,95.437,541.198,538.259,0.0
49424.0,STARLINK-3135,PAYLOAD,2022-02-25 22:00:00,15.08868625,0.000213,53.2156,0.6478,47.1582,359.6701,-0.0013087,-0.00021073,0.0,0 STARLINK-3135,1 49424U 21104S   22056.91667824 -.00021073  00000-0 -13087-2 0  9995,2 49424  53.2156   0.6478 0002130  47.1582 359.6701 15.08868625 17373,6917.793000000002,95.436,541.131,538.184,0.0
49424.0,STARLINK-3135,PAYLOAD,2022-02-26 14:00:01,15.08838209,0.0002115,53.216,357.6547,44.1097,25.9378,5.0633e-05,5.18e-06,0.0,0 STARLINK-3135,1 49424U 21104S   22057.58334491  .00000518  00000-0  50633-4 0  9999,2 49424  53.2160 357.6547 0002115  44.1097  25.9378 15.08838209  3600,6917.886,95.438,541.214,538.288,0.0
49424.0,STARLINK-3135,PAYLOAD,2022-02-26 22:00:00,15.08857783,0.0002114,53.2162,356.1584,45.5782,36.0548,-0.0032743,-0.00052049,0.0,0 STARLINK-3135,1 49424U 21104S   22057.91667824 -.00052049  00000-0 -32743-2 0  9993,2 49424  53.2162 356.1584 0002114  45.5782  36.0548 15.08857783  3613,6917.826,95.436,541.153,538.229,0.0
49424.0,STARLINK-3135,PAYLOAD,2022-02-27 06:00:00,15.08798239,0.0002265,53.2163,354.6635,40.5913,52.6387,0.0031731,0.00050517,0.0,0 STARLINK-3135,1 49424U 21104S   22058.25001157  .00050517  00000-0  31731-2 0  9994,2 49424  53.2163 354.6635 0002265  40.5913  52.6387 15.08798239 17577,6918.0080000000025,95.44,541.44,538.306,0.0
49424.0,STARLINK-3135,PAYLOAD,2022-02-27 14:00:01,15.0882105,0.0002105,53.2164,353.1654,44.2872,60.5133,0.00073048,0.00011351,0.0,0 STARLINK-3135,1 49424U 21104S   22058.58334491  .00011351  00000-0  73048-3 0  9991,2 49424  53.2164 353.1654 0002105  44.2872  60.5133 15.08821050  3616,6917.938,95.439,541.26,538.347,0.0
49424.0,STARLINK-3135,PAYLOAD,2022-02-27 22:00:00,15.08849882,0.0002156,53.2167,351.6693,46.5065,69.8666,-0.0011934,-0.00019237,0.0,0 STARLINK-3135,1 49424U 21104S   22058.91667824 -.00019237  00000-0 -11934-2 0  9995,2 49424  53.2167 351.6693 0002156  46.5065  69.8666 15.08849882 17677,6917.85,95.437,541.207,538.224,0.0
49424.0,STARLINK-3135,PAYLOAD,2022-02-28 14:00:01,15.08841319,0.0002116,53.2166,348.6762,46.346,93.2398,0.0013924,0.00021943,0.0,0 STARLINK-3135,1 49424U 21104S   22059.58334491  .00021943  00000-0  13924-2 0  9996,2 49424  53.2166 348.6762 0002116  46.3460  93.2398 15.08841319 17773,6917.876,95.437,541.205,538.278,0.0
49424.0,STARLINK-3135,PAYLOAD,2022-02-28 22:00:00,15.08880968,0.0002169,53.2169,347.1803,47.6903,103.4902,-0.0035788,-0.00056861,0.0,0 STARLINK-3135,1 49424U 21104S   22059.91667824 -.00056861  00000-0 -35788-2 0  9993,2 49424  53.2169 347.1803 0002169  47.6903 103.4902 15.08880968  3593,6917.755,95.435,541.121,538.12,0.0
49424.0,STARLINK-3135,PAYLOAD,2022-03-01 06:00:00,15.08818588,0.0002261,53.2165,345.6852,42.2207,120.5959,0.0026767,0.00042545,0.0,0 STARLINK-3135,1 49424U 21104S   22060.25001157  .00042545  00000-0  26767-2 0  9992,2 49424  53.2165 345.6852 0002261  42.2207 120.5959 15.08818588 17874,6917.946,95.439,541.375,538.247,0.0
49424.0,STARLINK-3135,PAYLOAD,2022-03-01 14:00:01,15.08828476,0.000206,53.2164,344.1872,46.5322,127.8794,0.0017414,0.00027527,0.0,0 STARLINK-3135,1 49424U 21104S   22060.58334491  .00027527  00000-0  17414-2 0  9990,2 49424  53.2164 344.1872 0002060  46.5322 127.8794 15.08828476  3599,6917.916,95.438,541.206,538.356,0.0
49424.0,STARLINK-3135,PAYLOAD,2022-03-01 22:00:01,15.08869533,0.0002085,53.2165,342.6915,47.1437,138.9178,-0.0042563,-0.0006745,0.0,0 STARLINK-3135,1 49424U 21104S   22060.91668981 -.00067450  00000-0 -42563-2 0  9995,2 49424  53.2165 342.6915 0002085  47.1437 138.9178 15.08869533 17977,6917.79,95.436,541.097,538.2130000000002,0.0
